{"type": "FeatureCollection", "features": [{"type": "Feature", "properties": {"norad_id": 28054, "name": "DMSP 5D-3 F16 (USA 172)", "group": "weather", "lat": -19.753394468855944, "lon": -168.31438256301735, "alt_km": 849.0975472427963, "timestamp": "2025-12-23T09:49:06.718946+00:00", "meta": {"OBJECT_NAME": "DMSP 5D-3 F16 (USA 172)", "OBJECT_ID": "2003-048A", "EPOCH": "2025-12-22T21:24:26.411904", "MEAN_MOTION": 14.14427709, "ECCENTRICITY": 0.00062613, "INCLINATION": 99.0038, "RA_OF_ASC_NODE": 14.4285, "ARG_OF_PERICENTER": 288.3521, "MEAN_ANOMALY": 159.868, "EPHEMERIS_TYPE": 0, "CLASSIFICATION_TYPE": "U", "NORAD_CAT_ID": 28054, "ELEMENT_SET_NO": 999, "REV_AT_EPOCH": 14456, "BSTAR": 8.3155521e-05, "MEAN_MOTION_DOT": 1.14e-06, "MEAN_MOTION_DDOT": 0}, "tle": {"line1": "1 28054U 03048A   25356.89197236  .00000114  00000+0  83156-4 0  9992", "line2": "2 28054  99.0038  14.4285 0006261 288.3521 159.8680 14.14427709144564"}}, "geometry": {"type": "Point", "coordinates": [-168.31438256301735, -19.753394468855944]}}, {"type": "Feature", "properties": {"norad_id": 28912, "name": "METEOSAT-9 (MSG-2)", "group": "weather", "lat": -6.660743373921369, "lon": -76.48947102219161, "alt_km": 35633.2234390484, "timestamp": "2025-12-23T09:49:06.718994+00:00", "meta": {"OBJECT_NAME": "METEOSAT-9 (MSG-2)", "OBJECT_ID": "2005-049B", "EPOCH": "2025-12-22T18:31:08.664384", "MEAN_MOTION": 1.00267705, "ECCENTRICITY": 0.00617708, "INCLINATION": 8.9523, "RA_OF_ASC_NODE": 55.8676, "ARG_OF_PERICENTER": 281.9132, "MEAN_ANOMALY": 76.5371, "EPHEMERIS_TYPE": 0, "CLASSIFICATION_TYPE": "U", "NORAD_CAT_ID": 28912, "ELEMENT_SET_NO": 999, "REV_AT_EPOCH": 522, "BSTAR": 0, "MEAN_MOTION_DOT": 1.44e-06, "MEAN_MOTION_DDOT": 0}, "tle": {"line1": "1 28912U 05049B   25356.77162806  .00000144  00000+0  00000+0 0  9995", "line2": "2 28912   8.9523  55.8676 0061770 281.9132  76.5371  1.00267705  5221"}}, "geometry": {"type": "Point", "coordinates": [-76.48947102219161, -6.660743373921369]}}, {"type": "Feature", "properties": {"norad_id": 29522, "name": "DMSP 5D-3 F17 (USA 191)", "group": "weather", "lat": 20.57944608443547, "lon": -174.11312546545437, "alt_km": 836.5711919341029, "timestamp": "2025-12-23T09:49:06.719011+00:00", "meta": {"OBJECT_NAME": "DMSP 5D-3 F17 (USA 191)", "OBJECT_ID": "2006-050A", "EPOCH": "2025-12-22T22:53:09.102048", "MEAN_MOTION": 14.14923895, "ECCENTRICITY": 0.00098416, "INCLINATION": 98.7391, "RA_OF_ASC_NODE": 2.13, "ARG_OF_PERICENTER": 194.2781, "MEAN_ANOMALY": 165.8116, "EPHEMERIS_TYPE": 0, "CLASSIFICATION_TYPE": "U", "NORAD_CAT_ID": 29522, "ELEMENT_SET_NO": 999, "REV_AT_EPOCH": 98749, "BSTAR": 9.3286306e-05, "MEAN_MOTION_DOT": 1.37e-06, "MEAN_MOTION_DDOT": 0}, "tle": {"line1": "1 29522U 06050A   25356.95357757  .00000137  00000+0  93286-4 0  9992", "line2": "2 29522  98.7391   2.1300 0009841 194.2781 165.8116 14.14923895987490"}}, "geometry": {"type": "Point", "coordinates": [-174.11312546545437, 20.57944608443547]}}, {"type": "Feature", "properties": {"norad_id": 32958, "name": "FENGYUN 3A", "group": "weather", "lat": 48.55016613476363, "lon": -73.23844861706672, "alt_km": 826.3558203095527, "timestamp": "2025-12-23T09:49:06.719024+00:00", "meta": {"OBJECT_NAME": "FENGYUN 3A", "OBJECT_ID": "2008-026A", "EPOCH": "2025-12-22T20:03:12.943008", "MEAN_MOTION": 14.19517515, "ECCENTRICITY": 0.00076474, "INCLINATION": 98.6712, "RA_OF_ASC_NODE": 296.1503, "ARG_OF_PERICENTER": 277.7214, "MEAN_ANOMALY": 82.3094, "EPHEMERIS_TYPE": 0, "CLASSIFICATION_TYPE": "U", "NORAD_CAT_ID": 32958, "ELEMENT_SET_NO": 999, "REV_AT_EPOCH": 91038, "BSTAR": 5.9361681e-05, "MEAN_MOTION_DOT": 8.2e-07, "MEAN_MOTION_DDOT": 0}, "tle": {"line1": "1 32958U 08026A   25356.83556647  .00000082  00000+0  59362-4 0  9996", "line2": "2 32958  98.6712 296.1503 0007647 277.7214  82.3094 14.19517515910388"}}, "geometry": {"type": "Point", "coordinates": [-73.23844861706672, 48.55016613476363]}}, {"type": "Feature", "properties": {"norad_id": 35491, "name": "GOES 14", "group": "weather", "lat": 0.7742772321340895, "lon": 122.9810290877432, "alt_km": 35837.09611384603, "timestamp": "2025-12-23T09:49:06.719047+00:00", "meta": {"OBJECT_NAME": "GOES 14", "OBJECT_ID": "2009-033A", "EPOCH": "2025-12-22T14:19:32.756160", "MEAN_MOTION": 1.00096971, "ECCENTRICITY": 5.673e-05, "INCLINATION": 1.2278, "RA_OF_ASC_NODE": 85.3054, "ARG_OF_PERICENTER": 186.8554, "MEAN_ANOMALY": 278.1544, "EPHEMERIS_TYPE": 0, "CLASSIFICATION_TYPE": "U", "NORAD_CAT_ID": 35491, "ELEMENT_SET_NO": 999, "REV_AT_EPOCH": 482, "BSTAR": 0, "MEAN_MOTION_DOT": 2.7e-07, "MEAN_MOTION_DDOT": 0}, "tle": {"line1": "1 35491U 09033A   25356.59690690  .00000027  00000+0  00000+0 0  9999", "line2": "2 35491   1.2278  85.3054 0000567 186.8554 278.1544  1.00096971  4822"}}, "geometry": {"type": "Point", "coordinates": [122.9810290877432, 0.7742772321340895]}}, {"type": "Feature", "properties": {"norad_id": 35951, "name": "DMSP 5D-3 F18 (USA 210)", "group": "weather", "lat": 20.531169187186677, "lon": -29.601269912668297, "alt_km": 834.705900472637, "timestamp": "2025-12-23T09:49:06.719065+00:00", "meta": {"OBJECT_NAME": "DMSP 5D-3 F18 (USA 210)", "OBJECT_ID": "2009-057A", "EPOCH": "2025-12-22T20:08:31.746912", "MEAN_MOTION": 14.14775673, "ECCENTRICITY": 0.00117812, "INCLINATION": 98.8846, "RA_OF_ASC_NODE": 333.19, "ARG_OF_PERICENTER": 36.0911, "MEAN_ANOMALY": 324.1055, "EPHEMERIS_TYPE": 0, "CLASSIFICATION_TYPE": "U", "NORAD_CAT_ID": 35951, "ELEMENT_SET_NO": 999, "REV_AT_EPOCH": 83465, "BSTAR": 0.00016105884, "MEAN_MOTION_DOT": 2.66e-06, "MEAN_MOTION_DDOT": 0}, "tle": {"line1": "1 35951U 09057A   25356.83925633  .00000266  00000+0  16106-3 0  9994", "line2": "2 35951  98.8846 333.1900 0011781  36.0911 324.1055 14.14775673834656"}}, "geometry": {"type": "Point", "coordinates": [-29.601269912668297, 20.531169187186677]}}, {"type": "Feature", "properties": {"norad_id": 36411, "name": "EWS-G2 (GOES 15)", "group": "weather", "lat": -0.50098498767001, "lon": -59.13600171518273, "alt_km": 35767.5509456388, "timestamp": "2025-12-23T09:49:06.719087+00:00", "meta": {"OBJECT_NAME": "EWS-G2 (GOES 15)", "OBJECT_ID": "2010-008A", "EPOCH": "2025-12-22T22:00:56.074752", "MEAN_MOTION": 1.00271099, "ECCENTRICITY": 0.00055033, "INCLINATION": 0.8373, "RA_OF_ASC_NODE": 86.0744, "ARG_OF_PERICENTER": 178.2461, "MEAN_ANOMALY": 218.9862, "EPHEMERIS_TYPE": 0, "CLASSIFICATION_TYPE": "U", "NORAD_CAT_ID": 36411, "ELEMENT_SET_NO": 999, "REV_AT_EPOCH": 5787, "BSTAR": 0, "MEAN_MOTION_DOT": 5.9e-07, "MEAN_MOTION_DDOT": 0}, "tle": {"line1": "1 36411U 10008A   25356.91731568  .00000059  00000+0  00000+0 0  9997", "line2": "2 36411   0.8373  86.0744 0005503 178.2461 218.9862  1.00271099 57871"}}, "geometry": {"type": "Point", "coordinates": [-59.13600171518273, -0.50098498767001]}}, {"type": "Feature", "properties": {"norad_id": 36744, "name": "COMS 1", "group": "weather", "lat": -4.1111798310161225, "lon": 7.713842236306865, "alt_km": 35786.21374488576, "timestamp": "2025-12-23T09:49:06.719100+00:00", "meta": {"OBJECT_NAME": "COMS 1", "OBJECT_ID": "2010-032A", "EPOCH": "2025-12-22T17:11:53.751840", "MEAN_MOTION": 1.00271172, "ECCENTRICITY": 7.664e-05, "INCLINATION": 4.3629, "RA_OF_ASC_NODE": 77.8859, "ARG_OF_PERICENTER": 212.0296, "MEAN_ANOMALY": 187.7539, "EPHEMERIS_TYPE": 0, "CLASSIFICATION_TYPE": "U", "NORAD_CAT_ID": 36744, "ELEMENT_SET_NO": 999, "REV_AT_EPOCH": 4932, "BSTAR": 0, "MEAN_MOTION_DOT": -3.25e-06, "MEAN_MOTION_DDOT": 0}, "tle": {"line1": "1 36744U 10032A   25356.71659435 -.00000325  00000+0  00000+0 0  9990", "line2": "2 36744   4.3629  77.8859 0000766 212.0296 187.7539  1.00271172 49324"}}, "geometry": {"type": "Point", "coordinates": [7.713842236306865, -4.1111798310161225]}}, {"type": "Feature", "properties": {"norad_id": 37214, "name": "FENGYUN 3B", "group": "weather", "lat": -13.576382231184335, "lon": 39.65077151516467, "alt_km": 832.7730395736744, "timestamp": "2025-12-23T09:49:06.719113+00:00", "meta": {"OBJECT_NAME": "FENGYUN 3B", "OBJECT_ID": "2010-059A", "EPOCH": "2025-12-23T00:14:03.158592", "MEAN_MOTION": 14.147909, "ECCENTRICITY": 0.00215791, "INCLINATION": 98.989, "RA_OF_ASC_NODE": 37.0581, "ARG_OF_PERICENTER": 328.476, "MEAN_ANOMALY": 144.9709, "EPHEMERIS_TYPE": 0, "CLASSIFICATION_TYPE": "U", "NORAD_CAT_ID": 37214, "ELEMENT_SET_NO": 999, "REV_AT_EPOCH": 78251, "BSTAR": -0.00011899781, "MEAN_MOTION_DOT": -2.75e-06, "MEAN_MOTION_DDOT": 0}, "tle": {"line1": "1 37214U 10059A   25357.00975878 -.00000275  00000+0 -11900-3 0  9997", "line2": "2 37214  98.9890  37.0581 0021579 328.4760 144.9709 14.14790900782512"}}, "geometry": {"type": "Point", "coordinates": [39.65077151516467, -13.576382231184335]}}, {"type": "Feature", "properties": {"norad_id": 37849, "name": "SUOMI NPP", "group": "weather", "lat": 7.887209961261713, "lon": -66.57152426957651, "alt_km": 828.8995061243222, "timestamp": "2025-12-23T09:49:06.719124+00:00", "meta": {"OBJECT_NAME": "SUOMI NPP", "OBJECT_ID": "2011-061A", "EPOCH": "2025-12-22T15:10:21.732672", "MEAN_MOTION": 14.19516903, "ECCENTRICITY": 0.00024883, "INCLINATION": 98.7787, "RA_OF_ASC_NODE": 293.8852, "ARG_OF_PERICENTER": 103.0781, "MEAN_ANOMALY": 257.0673, "EPHEMERIS_TYPE": 0, "CLASSIFICATION_TYPE": "U", "NORAD_CAT_ID": 37849, "ELEMENT_SET_NO": 999, "REV_AT_EPOCH": 73339, "BSTAR": 6.3406935e-05, "MEAN_MOTION_DOT": 8.9e-07, "MEAN_MOTION_DDOT": 0}, "tle": {"line1": "1 37849U 11061A   25356.63219598  .00000089  00000+0  63407-4 0  9994", "line2": "2 37849  98.7787 293.8852 0002488 103.0781 257.0673 14.19516903733392"}}, "geometry": {"type": "Point", "coordinates": [-66.57152426957651, 7.887209961261713]}}]}